AEROCUBE 8C             
1 41853U 16067F   24203.93776568  .00011194  00000+0  72392-3 0  9994
2 41853  98.0910  13.5739 0006572 283.5433  76.5062 15.08365327420626
PROMETHEUS 2-1          
1 41854U 16067G   24204.43540780  .00025038  00000+0  12176-2 0  9991
2 41854  98.1006  22.0492 0011495 297.3757  62.6305 15.18347958421085
PROMETHEUS 2-3          
1 41855U 16067H   24204.43247596  .00025420  00000+0  12380-2 0  9993
2 41855  98.0937  21.5003 0009693 307.8177  52.2177 15.18310184421083
AALTO-1                 
1 42775U 17036L   24203.70806086  .00203800  00000+0  11892-2 0  9993
2 42775  97.0970 233.9933 0005142 114.7751 245.4051 15.77821752394539
CORVUS BC2              
1 42846U 17042X   24204.06039684  .00006932  00000+0  59049-3 0  9995
2 42846  97.3741  27.2258 0006381 307.8952  52.1694 14.98049175382665
CORVUS BC1              
1 42847U 17042Y   24204.48532762  .00005629  00000+0  47838-3 0  9992
2 42847  97.3739  28.0365 0006873 306.0328  54.0258 14.98216823382747
MIRATA                  
1 43015U 17073C   24204.23088646  .00033242  00000+0  14987-2 0  9994
2 43015  97.5910  88.5974 0166412 140.7175 220.6268 15.09341472361611
MAKERSAT 0              
1 43016U 17073D   24203.60884266  .00017633  00000+0  97689-3 0  9994
2 43016  97.5741  81.6471 0194040 165.6246 195.0610 14.99153003361067
GOMX-4B                 
1 43196U 18015E   24204.05071455  .00108484  00000+0  92680-3 0  9999
2 43196  97.6050  20.4738 0007299 185.4525 174.6658 15.69120015360986
GOMX-4A                 
1 43197U 18015F   24204.45990190  .00270296  28453-4  97111-3 0  9992
2 43197  97.5920  26.8641 0005776 194.0967 166.0145 15.88702699361453
SIRION PATHFINDER-2     
1 43759U 18099B   24203.84627216  .00009294  00000+0  68982-3 0  9991
2 43759  97.5244 259.0191 0011442 166.3349 193.8189 15.03212631307713
CORVUS BC4              
1 43767U 18099K   24203.69604263  .00008723  00000+0  66027-3 0  9994
2 43767  97.5100 255.9790 0010238 224.4634 135.5770 15.02500271307570
MOVE-II                 
1 43780U 18099Y   24203.73081628  .00030282  00000+0  15107-2 0  9995
2 43780  97.5191 266.4308 0006539 205.6840 154.4070 15.17446089308167
SPACEBEE-7              
1 43816U 18099BL  24204.14296717  .00023152  00000+0  13189-2 0  9994
2 43816  97.5459 267.4400 0010661 162.3988 197.7615 15.12764613307694
SPACEBEE-6              
1 43818U 18099BN  24203.67224927  .00053160  00000+0  20511-2 0  9996
2 43818  97.5393 272.9448 0009163 164.8723 195.2791 15.26069227308160
SHIELDS 1               
1 43850U 18104B   24203.66415250  .00017898  00000+0  46310-3 0  9993
2 43850  85.0214 259.6890 0008176 306.6130  53.4369 15.38914770311462
SONATE                  
1 44400U 19038Q   24203.94932918  .00031195  00000+0  89064-3 0  9997
2 44400  97.7117 199.6378 0014061 351.0695   9.0295 15.35873406279410
LUCKY-7                 
1 44406U 19038W   24204.06369633  .00059252  00000+0  11463-2 0  9996
2 44406  97.7008 204.4041 0009025 331.3397  28.7355 15.47510206279752
DUCHIFAT-3              
1 44854U 19089C   24204.33751858  .00023228  00000+0  11282-2 0  9996
2 44854  36.9546 195.3999 0003998   9.5265 350.5557 15.17693549253540
M2 PATHFINDER           
1 45727U 20037E   24204.47103045  .00004760  00000+0  41320-3 0  9992
2 45727  97.7779  20.7279 0011490  11.3386 348.8093 14.97471106221221
NETSAT-4                
1 46504U 20068U   24204.19402777  .00013242  00000+0  69099-3 0  9991
2 46504  97.8074 162.3049 0008077 233.5198 126.5290 15.16045720209472
NETSAT-3                
1 46505U 20068V   24204.52228827  .00013567  00000+0  72004-3 0  9991
2 46505  97.8047 162.1044 0007255 241.4879 118.5623 15.15445805209510
NETSAT-1                
1 46506U 20068W   24203.81947493  .00011705  00000+0  65448-3 0  9996
2 46506  97.8071 160.7723 0005909 259.0925 100.9641 15.13632078209363
NETSAT-2                
1 46507U 20068X   24203.88293491  .00015747  00000+0  82214-3 0  9996
2 46507  97.8058 161.6047 0004990 262.7068  97.3597 15.16001446209378
WILDTRACKCUBE-SIMBA     
1 47941U 21022K   24204.47828000  .00022251  00000+0  95554-3 0  9995
2 47941  97.4564 100.9497 0015739  29.3103 330.9013 15.22591332183830
SMOG-1                  
1 47964U 21022AJ  24204.26910553  .01347425  98880-3  26820-2 0  9992
2 47964  97.4436 118.5494 0009948 169.7135 190.4349 16.00018499183773
BCCSAT-1                
1 48041U 21022AK  24204.31776001  .00156387  00000+0  21703-2 0  9995
2 48041  97.4567 112.8154 0002446  37.2848 322.8576 15.56492164183386
BEESAT-7                
1 48084U 21022AN  24204.19486123  .00580066  00000+0  27746-2 0  9999
2 48084  97.4438 114.7294 0006500 132.2218 227.9603 15.81258423183256
BEESAT-8                
1 48085U 21022AP  24204.51627353  .00045162  00000+0  13248-2 0  9993
2 48085  97.4743 107.0117 0011012  14.7555 345.4007 15.34976233183299
LEDSAT                  
1 49069U 21073D   24204.14935191  .00028881  00000+0  11109-2 0  9996
2 49069  97.4362 275.0741 0019557 157.9694 202.2390 15.26175275161787
SITRO-AIS 5 (KATYS)     
1 57176U 23091L   24204.50589824  .00013412  00000+0  84457-3 0  9995
2 57176  97.6095 256.3962 0017051   5.9628 354.1801 15.09177567 58824
SITRO-AIS 6 (CHIRKIN)   
1 57192U 23091AC  24204.48967688  .00013508  00000+0  84919-3 0  9997
2 57192  97.6100 256.4070 0016872   6.0591 354.0839 15.09239450 58821
SITRO-AIS 8 (ANOKHIN)   
1 57193U 23091AD  24204.51592476  .00013238  00000+0  82415-3 0  9990
2 57193  97.6093 256.5174 0016588   7.1868 352.9595 15.09603574 58831
SITRO-AIS 7 (FARTUSHNIY)
1 57194U 23091AE  24204.49576001  .00013621  00000+0  85744-3 0  9998
2 57194  97.6096 256.3919 0016778   6.4988 353.6456 15.09190361 58824
SITRO-AIS 10 (BURDAEV)  
1 57199U 23091AK  24204.50963318  .00015593  00000+0  92282-3 0  9991
2 57199  97.6109 257.5188 0011471 356.2596   3.8547 15.11468798 58898
SITRO-AIS 9 (SHCHUKIN)  
1 57201U 23091AM  24204.44214636  .00015381  00000+0  91096-3 0  9997
2 57201  97.6104 257.4293 0011425 356.3985   3.7161 15.11446378 58885
SITRO-AIS 12 (SMIRENNIY)
1 57204U 23091AQ  24204.53255900  .00014599  00000+0  86022-3 0  9992
2 57204  97.6118 257.6646 0011171 351.0301   9.0728 15.11645399 58904
SITRO-AIS 11 (SHEFFER)  
1 57208U 23091AU  24204.51626235  .00015209  00000+0  89383-3 0  9999
2 57208  97.6111 257.6744 0011064 350.5668   9.5353 15.11732637 58902
SITRO-AIS 29            
1 59052U 24039B   24204.50776185  .00036670  00000+0  12684-2 0  9994
2 59052  97.3932 166.2646 0020059  93.3650 266.9885 15.29606460 21993
SITRO-AIS 30            
1 59053U 24039C   24204.50869083  .00035912  00000+0  12452-2 0  9996
2 59053  97.3930 166.2589 0020168  94.0327 266.3219 15.29529847 21985
SITRO-AIS 31            
1 59054U 24039D   24204.49886889  .00036345  00000+0  12544-2 0  9991
2 59054  97.3932 166.2729 0020079  94.0165 266.3371 15.29679616 22008
SITRO-AIS 33            
1 59055U 24039E   24204.48775792  .00034752  00000+0  11947-2 0  9997
2 59055  97.3935 166.2935 0019836  94.7228 265.6279 15.29821866 21999
SITRO-AIS 35            
1 59056U 24039F   24204.48371140  .00034727  00000+0  11932-2 0  9993
2 59056  97.3933 166.2959 0019642  94.9035 265.4448 15.29843409 21990
SITRO-AIS 32            
1 59057U 24039G   24204.49283943  .00036002  00000+0  12421-2 0  9990
2 59057  97.3936 166.2857 0019680  94.9737 265.3751 15.29701072 21997
SITRO-AIS 34            
1 59058U 24039H   24204.48814112  .00035113  00000+0  12087-2 0  9998
2 59058  97.3937 166.2944 0019855  94.9267 265.4241 15.29776771 21991
SITRO-AIS 36            
1 59059U 24039J   24204.47788539  .00033139  00000+0  11369-2 0  9999
2 59059  97.3933 166.3040 0019419  95.1304 265.2153 15.29907356 21992
SITRO-AIS 49            
1 59060U 24039K   24204.47880907  .00032607  00000+0  11205-2 0  9991
2 59060  97.3933 166.3027 0019454  94.7771 265.5692 15.29856813 21993
SITRO-AIS 50            
1 59061U 24039L   24204.53219544  .00034995  00000+0  11954-2 0  9995
2 59061  97.3930 166.3825 0019313  94.7743 265.5704 15.30038539 22006
SITRO-AIS 51            
1 59062U 24039M   24204.53203046  .00035112  00000+0  11998-2 0  9996
2 59062  97.3931 166.3834 0019320  94.4867 265.8581 15.30026239 22000
SITRO-AIS 52            
1 59063U 24039N   24204.52399952  .00035988  00000+0  12251-2 0  9992
2 59063  97.3932 166.3954 0019191  94.5861 265.7572 15.30145721 22003
SITRO-AIS 25            
1 59066U 24039R   24204.49663822  .00005775  00000+0  55120-3 0  9995
2 59066  95.4020 121.2866 0169074 220.9805 137.8609 14.83283913 21343
SITRO-AIS 26            
1 59067U 24039S   24204.49691397  .00005770  00000+0  55137-3 0  9997
2 59067  95.4020 121.2854 0168996 221.0169 137.8242 14.83249540 21349
SITRO-AIS 27            
1 59068U 24039T   24204.48371994  .00005554  00000+0  52896-3 0  9994
2 59068  95.4022 121.3014 0168597 220.8617 137.9865 14.83425641 21343
SITRO-AIS 28            
1 59071U 24039U   24204.48018077  .00005330  00000+0  50741-3 0  9997
2 59071  95.4023 121.3059 0168437 220.8429 138.0070 14.83467966 21347
OOV-CUBE                
1 60240U 24128F   24204.49247546  .00005135  00000+0  46736-3 0  9994
2 60240  61.9986 117.9244 0010157 269.5536  90.4388 14.96378226  1899
ROBUSTA 3A              
1 60243U 24128J   24204.49783270  .00010614  00000+0  96024-3 0  9999
2 60243  61.9928 117.9330 0012758 259.6999 100.2650 14.95810960  1893
